OBJECT_NAME,OBJECT_ID,EPOCH,MEAN_MOTION,ECCENTRICITY,INCLINATION,RA_OF_ASC_NODE,ARG_OF_PERICENTER,MEAN_ANOMALY,EPHEMERIS_TYPE,CLASSIFICATION_TYPE,NORAD_CAT_ID,ELEMENT_SET_NO,REV_AT_EPOCH,BSTAR,MEAN_MOTION_DOT,MEAN_MOTION_DDOT
AEHF-4 (USA 288),2018-079A,2026-06-20T09:05:06.756288,1.00271719,.0060337,1.4333,4.2858,355.9946,337.0743,0,U,43651,999,2832,0,-.28E-5,0
BEIDOU-3 G1,2018-085A,2026-06-21T12:07:38.862624,1.00270433,.0008152,2.8805,97.2530,350.3805,163.9159,0,U,43683,999,2810,0,-.111E-5,0
GSAT-29,2018-089A,2026-06-19T23:24:12.383712,1.00276899,.0003865,0.0990,264.2646,153.4996,256.5836,0,U,43698,999,2781,0,.79E-6,0
ES'HAIL 2,2018-090A,2026-06-20T07:49:11.541792,1.00272471,.0001829,0.0162,58.1464,66.6264,286.8419,0,U,43700,999,2770,0,.139E-5,0
GEO-KOMPSAT-2A,2018-100A,2026-06-20T10:01:04.427040,1.00272261,.000217,0.0473,151.2642,295.2838,100.6088,0,U,43823,999,2766,0,-.348E-5,0
GSAT-11,2018-100B,2026-06-20T09:45:36.464256,1.00272475,.0007812,0.0485,257.0358,192.2265,39.7563,0,U,43824,999,2751,0,-.82E-6,0
GSAT-7A,2018-105A,2026-06-20T02:51:44.363808,1.00271952,.00020431,0.0287,96.4468,330.1212,307.4536,0,U,43864,999,2747,0,.22E-6,0
COSMOS 2533,2018-107A,2026-06-21T00:13:05.710368,1.00273046,.0000696,0.0461,99.0527,340.4839,262.9366,0,U,43867,999,2748,0,-.41E-6,0
TJS-3,2018-110A,2026-06-20T11:47:22.208928,1.00270060,.0002268,2.5544,80.4557,79.3783,73.9462,0,U,43874,999,2745,0,-.221E-5,0
ZHONGXING-2D,2019-001A,2026-06-21T13:24:03.182688,1.00269477,.0001289,0.0414,195.9171,142.6089,262.2405,0,U,43920,999,5412,0,-.338E-5,0
HELLAS-SAT 4 & SGS-1,2019-007A,2026-06-20T06:10:19.506144,1.00267834,.0004983,0.0753,127.6682,12.3910,260.0061,0,U,44034,999,2739,0,.148E-5,0
GSAT-31,2019-007B,2026-06-20T06:26:38.560704,1.00274329,.0001511,0.0570,256.5598,112.5506,43.9069,0,U,44035,999,2699,0,.12E-5,0
NUSANTARA SATU,2019-009A,2026-06-20T04:58:07.167360,1.00270647,.00044221,0.0405,136.7638,340.7115,11.4801,0,U,44048,999,2680,0,-.239E-5,0
ZHONGXING-6C,2019-012A,2026-06-21T13:24:10.670976,1.00271888,.0014083,0.0848,74.4909,335.7039,191.0114,0,U,44067,999,2678,0,-.336E-5,0
WGS 10 (USA 291),2019-014A,2026-06-20T06:18:38.860128,1.00272293,.0000413,0.0187,23.6986,337.2196,62.5331,0,U,44071,999,2664,0,.42E-6,0
TIANLIAN 2-01,2019-017A,2026-06-20T09:46:28.881408,1.00271234,.0000872,0.5494,83.1269,32.2467,16.8699,0,U,44076,999,2668,0,-.111E-5,0
ARABSAT-6A,2019-021A,2026-06-20T07:50:26.422944,1.00275621,.0001432,0.0516,16.4098,337.6194,62.5990,0,U,44186,999,2618,0,.149E-5,0
BEIDOU-3 IGSO-1,2019-023A,2026-06-20T13:09:30.279168,1.00290704,.0025616,58.6998,37.6136,225.5297,321.1703,0,U,44204,999,724,0,-.229E-5,0
BEIDOU-2 G8,2019-027A,2026-06-21T13:33:39.678912,1.00269615,.0010115,1.6705,74.5245,282.4745,260.6959,0,U,44231,999,2612,0,-.249E-5,0
YAMAL 601,2019-031A,2026-06-21T13:00:59.220576,1.00271067,.0002585,0.0134,63.0832,25.7905,65.1063,0,U,44307,999,2597,0,.119E-5,0
AT&T T-16,2019-034A,2026-06-20T08:30:38.771424,1.00270065,.000065,0.0207,65.5499,225.8469,3.9721,0,U,44333,999,2566,0,-.12E-5,0
EUTELSAT 7C,2019-034B,2026-06-20T00:53:09.062016,1.00270984,.00031481,0.0727,176.6467,255.4742,216.4246,0,U,44334,999,686,0,.43E-6,0
BEIDOU-3 IGSO-2,2019-035A,2026-06-21T08:40:24.173760,1.00265382,.00393,55.2486,158.8257,216.3163,144.0827,0,U,44337,999,2571,0,-.77E-6,0
COSMOS 2539,2019-048A,2026-06-20T21:26:34.457568,1.00275171,.0000452,0.0385,91.7737,16.4031,134.5612,0,U,44457,999,2526,0,.78E-6,0
EDRS-C,2019-049A,2026-06-20T11:06:59.547744,1.00270266,.0000842,0.0174,99.2418,351.5130,127.1350,0,U,44475,999,2524,0,-.267E-5,0
INTELSAT 39 (IS-39),2019-049B,2026-06-20T04:34:09.729696,1.00270937,.00009261,0.0124,350.8490,338.3370,69.7027,0,U,44476,999,2515,0,.29E-6,0
AMOS-17,2019-050A,2026-06-20T07:46:41.782080,1.00274444,.0001926,0.0218,319.1911,166.1374,276.8959,0,U,44479,999,2521,0,.105E-5,0
AEHF-5 (USA 292),2019-051A,2026-06-20T01:17:51.692928,1.00273066,.00662221,1.4512,336.4772,359.9102,44.4246,0,U,44481,999,2529,0,-.264E-5,0
EUTELSAT 5 WEST B,2019-067A,2026-06-20T09:23:05.034336,1.00270225,.000311,0.0621,352.3440,96.7408,315.3001,0,U,44624,999,2446,0,-.47E-6,0
MEV-1,2019-067B,2026-06-16T22:18:40.152960,1.00269616,.00027946,0.8740,268.9828,179.8034,307.2103,0,U,44625,999,6174,0,-.149E-5,0
TJS-4,2019-070A,2026-06-21T13:10:51.116736,1.00273719,.0004425,0.0293,82.1845,317.2053,151.5670,0,U,44637,999,2458,0,-.171E-5,0
TIBA-1,2019-080A,2026-06-20T04:26:40.447104,1.00272600,.00019833,0.0566,20.3730,79.4675,270.7037,0,U,44800,999,2408,0,.151E-5,0
