AEHF-4 (USA 288)        
1 43651U 18079A   26171.37855042 -.00000280  00000+0  00000+0 0  9994
2 43651   1.4333   4.2858 0060337 355.9946 337.0743  1.00271719 28322
BEIDOU-3 G1             
1 43683U 18085A   26172.50531091 -.00000111  00000+0  00000+0 0  9990
2 43683   2.8805  97.2530 0008152 350.3805 163.9159  1.00270433 28100
GSAT-29                 
1 43698U 18089A   26170.97514333  .00000079  00000+0  00000+0 0  9991
2 43698   0.0990 264.2646 0003865 153.4996 256.5836  1.00276899 27814
ES'HAIL 2               
1 43700U 18090A   26171.32582803  .00000139  00000+0  00000+0 0  9991
2 43700   0.0162  58.1464 0001829  66.6264 286.8419  1.00272471 27701
GEO-KOMPSAT-2A          
1 43823U 18100A   26171.41741235 -.00000348  00000+0  00000+0 0  9998
2 43823   0.0473 151.2642 0002170 295.2838 100.6088  1.00272261 27669
GSAT-11                 
1 43824U 18100B   26171.40667204 -.00000082  00000+0  00000+0 0  9996
2 43824   0.0485 257.0358 0007812 192.2265  39.7563  1.00272475 27511
GSAT-7A                 
1 43864U 18105A   26171.11926347  .00000022  00000+0  00000+0 0  9992
2 43864   0.0287  96.4468 0002043 330.1212 307.4536  1.00271952 27477
COSMOS 2533             
1 43867U 18107A   26172.00909387 -.00000041  00000+0  00000+0 0  9993
2 43867   0.0461  99.0527 0000696 340.4839 262.9366  1.00273046 27483
TJS-3                   
1 43874U 18110A   26171.49122927 -.00000221  00000+0  00000+0 0  9994
2 43874   2.5544  80.4557 0002268  79.3783  73.9462  1.00270060 27457
ZHONGXING-2D            
1 43920U 19001A   26172.55837017 -.00000338  00000+0  00000+0 0  9996
2 43920   0.0414 195.9171 0001289 142.6089 262.2405  1.00269477 54121
HELLAS-SAT 4 & SGS-1    
1 44034U 19007A   26171.25717021  .00000148  00000+0  00000+0 0  9995
2 44034   0.0753 127.6682 0004983  12.3910 260.0061  1.00267834 27391
GSAT-31                 
1 44035U 19007B   26171.26850186  .00000120  00000+0  00000+0 0  9997
2 44035   0.0570 256.5598 0001511 112.5506  43.9069  1.00274329 26993
NUSANTARA SATU          
1 44048U 19009A   26171.20702740 -.00000239  00000+0  00000+0 0  9991
2 44048   0.0405 136.7638 0004422 340.7115  11.4801  1.00270647 26806
ZHONGXING-6C            
1 44067U 19012A   26172.55845684 -.00000336  00000+0  00000+0 0  9998
2 44067   0.0848  74.4909 0014083 335.7039 191.0114  1.00271888 26787
WGS 10 (USA 291)        
1 44071U 19014A   26171.26294977  .00000042  00000+0  00000+0 0  9998
2 44071   0.0187  23.6986 0000413 337.2196  62.5331  1.00272293 26641
TIANLIAN 2-01           
1 44076U 19017A   26171.40727872 -.00000111  00000+0  00000+0 0  9995
2 44076   0.5494  83.1269 0000872  32.2467  16.8699  1.00271234 26686
ARABSAT-6A              
1 44186U 19021A   26171.32669471  .00000149  00000+0  00000+0 0  9993
2 44186   0.0516  16.4098 0001432 337.6194  62.5990  1.00275621 26180
BEIDOU-3 IGSO-1         
1 44204U 19023A   26171.54826712 -.00000229  00000+0  00000+0 0  9993
2 44204  58.6998  37.6136 0025616 225.5297 321.1703  1.00290704  7242
BEIDOU-2 G8             
1 44231U 19027A   26172.56504258 -.00000249  00000+0  00000+0 0  9990
2 44231   1.6705  74.5245 0010115 282.4745 260.6959  1.00269615 26120
YAMAL 601               
1 44307U 19031A   26172.54235209  .00000119  00000+0  00000+0 0  9999
2 44307   0.0134  63.0832 0002585  25.7905  65.1063  1.00271067 25976
AT&T T-16               
1 44333U 19034A   26171.35461541 -.00000120  00000+0  00000+0 0  9992
2 44333   0.0207  65.5499 0000650 225.8469   3.9721  1.00270065 25665
EUTELSAT 7C             
1 44334U 19034B   26171.03691044  .00000043  00000+0  00000+0 0  9994
2 44334   0.0727 176.6467 0003148 255.4742 216.4246  1.00270984  6864
BEIDOU-3 IGSO-2         
1 44337U 19035A   26172.36139090 -.00000077  00000+0  00000+0 0  9991
2 44337  55.2486 158.8257 0039300 216.3163 144.0827  1.00265382 25714
COSMOS 2539             
1 44457U 19048A   26171.89345437  .00000078  00000+0  00000+0 0  9999
2 44457   0.0385  91.7737 0000452  16.4031 134.5612  1.00275171 25263
EDRS-C                  
1 44475U 19049A   26171.46318921 -.00000267  00000+0  00000+0 0  9992
2 44475   0.0174  99.2418 0000842 351.5130 127.1350  1.00270266 25249
INTELSAT 39 (IS-39)     
1 44476U 19049B   26171.19039039  .00000029  00000+0  00000+0 0  9998
2 44476   0.0124 350.8490 0000926 338.3370  69.7027  1.00270937 25150
AMOS-17                 
1 44479U 19050A   26171.32409470  .00000105  00000+0  00000+0 0  9993
2 44479   0.0218 319.1911 0001926 166.1374 276.8959  1.00274444 25214
AEHF-5 (USA 292)        
1 44481U 19051A   26171.05407052 -.00000264  00000+0  00000+0 0  9998
2 44481   1.4512 336.4772 0066222 359.9102  44.4246  1.00273066 25292
EUTELSAT 5 WEST B       
1 44624U 19067A   26171.39103049 -.00000047  00000+0  00000+0 0  9999
2 44624   0.0621 352.3440 0003110  96.7408 315.3001  1.00270225 24469
MEV-1                   
1 44625U 19067B   26167.92963140 -.00000149  00000+0  00000+0 0  9993
2 44625   0.8740 268.9828 0002794 179.8034 307.2103  1.00269616 61744
TJS-4                   
1 44637U 19070A   26172.54920274 -.00000171  00000+0  00000+0 0  9990
2 44637   0.0293  82.1845 0004425 317.2053 151.5670  1.00273719 24588
TIBA-1                  
1 44800U 19080A   26171.18519036  .00000151  00000+0  00000+0 0  9999
2 44800   0.0566  20.3730 0001983  79.4675 270.7037  1.00272600 24087
